SCD 1                   
1 22490U 93009B   19042.84280858  .00000211  00000-0  76901-5 0  9999
2 22490  24.9689 180.0590 0042808 238.0506 257.9617 14.44542689373126
TECHSAT 1B (GO-32)      
1 25397U 98043D   19042.90270459 -.00000001  00000-0  18745-4 0  9993
2 25397  98.6769 344.6702 0002239  64.5953 295.5457 14.23660001 69619
SCD 2                   
1 25504U 98060A   19042.97817521  .00000212  00000-0  86962-5 0  9996
2 25504  24.9969  26.1796 0016938 264.9192 125.7174 14.44060440 72203
LANDSAT 7               
1 25682U 99020A   19043.09832611  .00000051  00000-0  21191-4 0  9994
2 25682  98.1430 113.4372 0001175  81.0271 279.1076 14.57143332 54682
DLR-TUBSAT              
1 25757U 99029B   19043.03800257 -.00000006  00000-0  10033-4 0  9995
2 25757  98.4116 325.0218 0013362 249.4236 110.5525 14.51396693 44209
TERRA                   
1 25994U 99068A   19043.11472882  .00000238  00000-0  62871-4 0  9992
2 25994  98.2048 119.4930 0001376 110.0572 250.0752 14.57113218 18768
MAROC-TUBSAT            
1 27004U 01056D   19042.94075307 -.00000028  00000-0  18292-4 0  9993
2 27004  99.4419 178.8065 0019506 205.5669 264.0526 13.70133108858867
AQUA                    
1 27424U 02022A   19042.94139895  .00000068  00000-0  25273-4 0  9996
2 27424  98.2218 345.6419 0002858  70.9352 358.3851 14.57109076892295
IRS-P6 (RESOURCESAT-1)  
1 28051U 03046A   19043.12555161  .00000002  00000-0  16053-4 0  9993
2 28051  98.5307 122.5543 0058751  44.4920 316.0964 14.34144136795967
SHIYAN 1 (SY-1)         
1 28220U 04012A   19042.88248960  .00000180  00000-0  19473-4 0  9999
2 28220  97.7783   5.0516 0012381 264.2570  95.7241 14.99720732807046
FORMOSAT-2 (ROCSAT 2)   
1 28254U 04018A   19039.69554198  .00000100  00000-0  95395-4 0  9999
2 28254  98.7730  89.1619 0001411 301.5308  58.8347 14.00633044752800
AURA                    
1 28376U 04026A   19043.20844620  .00000071  00000-0  25814-4 0  9993
2 28376  98.2225 348.0655 0001545  68.3401 291.7962 14.57102350775423
IRS-P5 (CARTOSAT-1)     
1 28649U 05017A   19040.89642234  .00000404  00000-0  55424-4 0  9996
2 28649  97.8685 113.5853 0000311 140.7485 219.3824 14.83614446745336
SINAH 1                 
1 28893U 05043D   19042.97788560 -.00000007  00000-0  77528-5 0  9990
2 28893  97.9521 185.0450 0016231  51.5547 308.7109 14.61495484708793
EROS B                  
1 29079U 06014A   19043.10011867  .00001496  00000-0  65688-4 0  9996
2 29079  97.4064 163.4267 0002357 188.5307 292.4857 15.23468714710429
RESURS-DK 1             
1 29228U 06021A   19043.21951285  .00000049  00000-0  11011-4 0  9993
2 29228  69.9370 358.4189 0003326 178.0942 182.0232 15.02404335698965
ARIRANG-2 (KOMPSAT-2)   
1 29268U 06031A   19043.05061234  .00000136  00000-0  36125-4 0  9996
2 29268  98.0450 298.6205 0016674 265.0205  94.9098 14.62409194669393
LAPAN-TUBSAT            
1 29709U 07001A   19043.10559793 -.00000004  00000-0  60461-5 0  9998
2 29709  97.7900   8.5553 0011497 278.2057  81.7850 14.82160459653586
CARTOSAT-2 (IRS-P7)     
1 29710U 07001B   19043.07636161  .00000300  00000-0  48048-4 0  9995
2 29710  97.9914 103.1730 0001485  81.2299 278.9082 14.78648589652586
HAIYANG-1B              
1 31113U 07010A   19043.08943201 -.00000009  00000-0  12996-4 0  9992
2 31113  98.4739  95.3450 0012733 220.4032 139.6210 14.30214863617936
COSMO-SKYMED 1          
1 31598U 07023A   19043.06839469 -.00000110  00000-0 -73113-5 0  9994
2 31598  97.8863 228.2250 0001521  91.2229 268.9164 14.82156898632047
TERRASAR-X              
1 31698U 07026A   19043.18027873  .00000133  00000-0  95242-5 0  9999
2 31698  97.4457  52.1988 0001699  83.2599 347.9737 15.19149414646723
WORLDVIEW-1 (WV-1)      
1 32060U 07041A   19042.34666791  .00000800  00000-0  35504-4 0  9990
2 32060  97.3871 163.7032 0001565 119.1610 302.8708 15.24420664634292
YAOGAN 3                
1 32289U 07055A   19043.04463771 -.00000231  00000-0 -23073-4 0  9997
2 32289  98.0064  53.9240 0001439  98.1558 261.9835 14.80938939608258
COSMO-SKYMED 2          
1 32376U 07059A   19043.10216126  .00000059  00000-0  13990-4 0  9998
2 32376  97.8870 228.2579 0001291  79.6447 280.4887 14.82155609604791
RADARSAT-2              
1 32382U 07061A   19043.07395422 -.00000021  00000-0  87893-5 0  9995
2 32382  98.5773  51.8292 0001140  85.0809   6.3415 14.29986250582743
CARTOSAT-2A             
1 32783U 08021A   19043.12259348 -.00000132  00000-0 -10889-4 0  9993
2 32783  97.9908 103.5977 0013425 151.6594 208.5371 14.78650191582536
JASON-2 (OSTM)          
1 33105U 08032A   19043.21956948 -.00000050  00000-0  46867-4 0  9997
2 33105  66.0411 290.0443 0007673 274.2467 193.0282 12.87628112498485
RAPIDEYE 2              
1 33312U 08040A   19043.15210989 -.00000004  00000-0  61321-5 0  9999
2 33312  97.7609 116.1083 0012198 176.0537 184.0783 14.79921065564844
RAPIDEYE 5              
1 33313U 08040B   19043.10780907  .00000057  00000-0  14285-4 0  9990
2 33313  97.7686 114.7897 0018198  61.1175 299.1867 14.79923543564782
RAPIDEYE 1              
1 33314U 08040C   19043.16352756  .00000030  00000-0  10663-4 0  9991
2 33314  97.7618 115.8642 0023235 193.3612 166.7004 14.79925668564838
RAPIDEYE 3              
1 33315U 08040D   19043.13227308  .00000005  00000-0  73491-5 0  9994
2 33315  97.7717 114.6833 0013051 128.9656 231.2718 14.79921097564792
RAPIDEYE 4              
1 33316U 08040E   19043.12010762  .00000023  00000-0  97882-5 0  9998
2 33316  97.7748 114.4804 0012964  78.8569 281.4098 14.79919915564784
HUANJING 1A (HJ-1A)     
1 33320U 08041A   19043.12232287  .00000041  00000-0  13088-4 0  9997
2 33320  97.8569 104.9953 0024821 229.4762 130.4296 14.76994828562070
HUANJING 1B (HJ-1B)     
1 33321U 08041B   19043.09244391  .00000128  00000-0  25329-4 0  9990
2 33321  97.8633 106.7076 0033288 247.7302 112.0381 14.77097764562063
GEOEYE 1                
1 33331U 08042A   19043.10106877  .00000074  00000-0  23048-4 0  9996
2 33331  98.1081 119.6171 0010199 157.0370 203.1268 14.64306789557626
THEOS                   
1 33396U 08049A   19043.13657002  .00000169  00000-0  10000-3 0  9996
2 33396  98.7006 112.3750 0001057  95.0846 325.0542 14.20044547537333
COSMO-SKYMED 3          
1 33412U 08054A   19043.08949185  .00000331  00000-0  48114-4 0  9990
2 33412  97.8870 228.2457 0001406  81.4638 278.6726 14.82155099557251
YAOGAN 4                
1 33446U 08061A   19043.04215632  .00000070  00000-0  16779-4 0  9996
2 33446  97.6581  16.4766 0017233 132.0730 228.1950 14.76926119549292
GOSAT (IBUKI)           
1 33492U 09002A   19043.07653453 -.00000138  00000-0 -15987-4 0  9990
2 33492  98.0213 157.9376 0001226  80.4100 279.7220 14.67571426538545
YAOGAN 6                
1 34839U 09021A   19043.14405270  .00000441  00000-0  19386-4 0  9999
2 34839  97.0678  73.9118 0027351 334.4002  25.5881 15.26437936544850
DEIMOS-1                
1 35681U 09041A   19043.09700444  .00000037  00000-0  13618-4 0  9995
2 35681  97.8802 289.0697 0001797 140.6613 219.4722 14.71771113512115
DUBAISAT-1              
1 35682U 09041B   19043.15373827 -.00000010  00000-0  60671-5 0  9998
2 35682  97.7347 243.3285 0012316  23.3039 336.8723 14.68715497511004
OCEANSAT-2              
1 35931U 09051A   19042.85914320  .00000063  00000-0  27183-4 0  9998
2 35931  98.3004 139.7001 0002921 115.5870 244.5627 14.50854346497032
WORLDVIEW-2 (WV-2)      
1 35946U 09055A   19043.11792576  .00000142  00000-0  61656-4 0  9996
2 35946  98.4468 121.0831 0002093  52.0923 308.0421 14.37608133490422
SMOS                    
1 36036U 09059A   19042.63436601  .00000075  00000-0  37754-4 0  9998
2 36036  98.4424 231.7016 0000941  89.9535 270.1761 14.39759904487457
YAOGAN 7                
1 36110U 09069A   19043.11650495  .00000008  00000-0  93436-5 0  9991
2 36110  98.2635 223.1939 0024216 346.7768  13.2789 14.75178987494061
TANDEM-X                
1 36605U 10030A   19042.32147086 -.00000036  00000-0  14765-5 0  9999
2 36605  97.4458  51.3527 0001756  80.6766 336.7981 15.19152168479336
CARTOSAT-2B             
1 36795U 10035A   19043.15923388  .00000043  00000-0  12995-4 0  9992
2 36795  97.9887 103.3141 0013279 229.8484 130.1562 14.78632183463589
YAOGAN 10               
1 36834U 10038A   19043.14744463 -.00000008  00000-0  58022-5 0  9997
2 36834  97.9626  44.2694 0001447  87.1044 273.0333 14.80898878460017
COSMO-SKYMED 4          
1 37216U 10060A   19043.11904103  .00000014  00000-0  82765-5 0  9990
2 37216  97.8860 228.2739 0001361  80.8280 279.3078 14.82157327447347
RESOURCESAT-2           
1 37387U 11015A   19043.08998709 -.00000004  00000-0  18297-4 0  9999
2 37387  98.7301 119.6996 0004296  44.7735 315.3794 14.21619919405622
HAIYANG 2A              
1 37781U 11043A   19043.31237739  .00000573  00000-0  60714-3 0  9993
2 37781  99.3230  54.4242 0000868 124.3595 235.7590 13.78721098377369
RASAT                   
1 37791U 11044D   19043.13800918  .00000013  00000-0  11496-4 0  9993
2 37791  98.1201 137.6976 0022583  20.5814 339.6295 14.64703435400322
MEGHA-TROPIQUES         
1 37838U 11058A   19042.54685446  .00000350  00000-0  48597-4 0  9997
2 37838  19.9781  99.9105 0009265 209.2106 150.7780 14.09701198311240
SRMSAT                  
1 37841U 11058D   19042.47228935  .00000282  00000-0  97773-5 0  9994
2 37841  19.9726  80.3869 0011645 238.7973 261.0162 14.10624226378610
YAOGAN 13               
1 37941U 11072A   19043.14137178  .00000632  00000-0  34572-4 0  9990
2 37941  97.5202 335.7170 0001918  19.8138  93.3034 15.17855268399434
PLEIADES 1A             
1 38012U 11076F   19043.13466614 -.00000036  00000-0  20454-5 0  9997
2 38012  98.1758 119.5787 0001251  91.1678 268.9667 14.58565913381040
ZIYUAN 1-02C (ZY 1-02C) 
1 38038U 11079A   19043.09500450  .00000067  00000-0  37666-4 0  9995
2 38038  98.2601  94.4075 0001834  93.7844 266.3559 14.35488301374287
